{"type": "FeatureCollection", "features": [ {"type": "Feature", "properties": {"norad_id": 38552, "name": "METEOSAT-10 (MSG-3)", "group": "weather", "lat": -1.7902903214765447, "lon": -93.75252913764515, "alt_km": 35783.29447438747, "timestamp": "2025-12-23T11:34:47.828395+00:00", "meta": {"OBJECT_NAME": "METEOSAT-10 (MSG-3)", "OBJECT_ID": "2012-035B", "EPOCH": "2025-12-23T01:08:58.915104", "MEAN_MOTION": 1.0027689, "ECCENTRICITY": 7.31e-05, "INCLINATION": 4.2513, "RA_OF_ASC_NODE": 61.6947, "ARG_OF_PERICENTER": 264.0711, "MEAN_ANOMALY": 143.6614, "EPHEMERIS_TYPE": 0, "CLASSIFICATION_TYPE": "U", "NORAD_CAT_ID": 38552, "ELEMENT_SET_NO": 999, "REV_AT_EPOCH": 4909, "BSTAR": 0, "MEAN_MOTION_DOT": 1.6e-07, "MEAN_MOTION_DDOT": 0}, "tle": {"line1": "1 38552U 12035B   25357.04790411  .00000016  00000+0  00000+0 0  9997", "line2": "2 38552   4.2513  61.6947 0000731 264.0711 143.6614  1.00276890 49095"}}, "geometry": {"type": "Point", "coordinates": [-93.75252913764515, -1.7902903214765447]}}, {"type": "Feature", "properties": {"norad_id": 38771, "name": "METOP-B", "group": "weather", "lat": -50.96858142122445, "lon": 58.11753363538715, "alt_km": 829.7744882808765, "timestamp": "2025-12-23T11:34:47.828405+00:00", "meta": {"OBJECT_NAME": "METOP-B", "OBJECT_ID": "2012-049A", "EPOCH": "2025-12-23T03:22:34.504032", "MEAN_MOTION": 14.21412265, "ECCENTRICITY": 0.0003227, "INCLINATION": 98.6783, "RA_OF_ASC_NODE": 46.9224, "ARG_OF_PERICENTER": 122.2695, "MEAN_ANOMALY": 237.8796, "EPHEMERIS_TYPE": 0, "CLASSIFICATION_TYPE": "U", "NORAD_CAT_ID": 38771, "ELEMENT_SET_NO": 999, "REV_AT_EPOCH": 68825, "BSTAR": 8.5194e-05, "MEAN_MOTION_DOT": 1.43e-06, "MEAN_MOTION_DDOT": 0}, "tle": {"line1": "1 38771U 12049A   25357.14067713  .00000143  00000+0  85194-4 0  9991", "line2": "2 38771  98.6783  46.9224 0003227 122.2695 237.8796 14.21412265688256"}}, "geometry": {"type": "Point", "coordinates": [58.11753363538715, -50.96858142122445]}}, {"type": "Feature", "properties": {"norad_id": 39216, "name": "INSAT-3D", "group": "weather", "lat": -1.1069276925663911, "lon": 35.50555259041355, "alt_km": 35792.352673343725, "timestamp": "2025-12-23T11:34:47.828416+00:00", "meta": {"OBJECT_NAME": "INSAT-3D", "OBJECT_ID": "2013-038B", "EPOCH": "2025-12-22T22:20:24.211392", "MEAN_MOTION": 1.00275675, "ECCENTRICITY": 0.0001842, "INCLINATION": 1.4696, "RA_OF_ASC_NODE": 84.8836, "ARG_OF_PERICENTER": 153.7919, "MEAN_ANOMALY": 317.6677, "EPHEMERIS_TYPE": 0, "CLASSIFICATION_TYPE": "U", "NORAD_CAT_ID": 39216, "ELEMENT_SET_NO": 999, "REV_AT_EPOCH": 4531, "BSTAR": 0, "MEAN_MOTION_DOT": -3.18e-06, "MEAN_MOTION_DDOT": 0}, "tle": {"line1": "1 39216U 13038B   25356.93083578 -.00000318  00000+0  00000+0 0  9991", "line2": "2 39216   1.4696  84.8836 0001842 153.7919 317.6677  1.00275675 45319"}}, "geometry": {"type": "Point", "coordinates": [35.50555259041355, -1.1069276925663911]}}, {"type": "Feature", "properties": {"norad_id": 39260, "name": "FENGYUN 3C", "group": "weather", "lat": -25.29828470279165, "lon": -21.31972512384994, "alt_km": 856.039976461032, "timestamp": "2025-12-23T11:34:47.828425+00:00", "meta": {"OBJECT_NAME": "FENGYUN 3C", "OBJECT_ID": "2013-052A", "EPOCH": "2025-12-23T04:54:57.627360", "MEAN_MOTION": 14.15699258, "ECCENTRICITY": 0.0014857, "INCLINATION": 98.4776, "RA_OF_ASC_NODE": 334.3737, "ARG_OF_PERICENTER": 165.7351, "MEAN_ANOMALY": 194.4246, "EPHEMERIS_TYPE": 0, "CLASSIFICATION_TYPE": "U", "NORAD_CAT_ID": 39260, "ELEMENT_SET_NO": 999, "REV_AT_EPOCH": 63366, "BSTAR": 6.7569e-05, "MEAN_MOTION_DOT": 9.1e-07, "MEAN_MOTION_DDOT": 0}, "tle": {"line1": "1 39260U 13052A   25357.20483365  .00000091  00000+0  67569-4 0  9990", "line2": "2 39260  98.4776 334.3737 0014857 165.7351 194.4246 14.15699258633660"}}, "geometry": {"type": "Point", "coordinates": [-21.31972512384994, -25.29828470279165]}}, {"type": "Feature", "properties": {"norad_id": 40069, "name": "METEOR-M 2", "group": "weather", "lat": 4.214713692366283, "lon": 155.28606224047132, "alt_km": 819.0428406694555, "timestamp": "2025-12-23T11:34:47.828435+00:00", "meta": {"OBJECT_NAME": "METEOR-M 2", "OBJECT_ID": "2014-037A", "EPOCH": "2025-12-23T05:41:16.812960", "MEAN_MOTION": 14.21390038, "ECCENTRICITY": 0.0005513, "INCLINATION": 98.491, "RA_OF_ASC_NODE": 334.4192, "ARG_OF_PERICENTER": 176.548, "MEAN_ANOMALY": 183.5737, "EPHEMERIS_TYPE": 0, "CLASSIFICATION_TYPE": "U", "NORAD_CAT_ID": 40069, "ELEMENT_SET_NO": 999, "REV_AT_EPOCH": 59432, "BSTAR": 7.1638e-05, "MEAN_MOTION_DOT": 1.15e-06, "MEAN_MOTION_DDOT": 0}, "tle": {"line1": "1 40069U 14037A   25357.23700015  .00000115  00000+0  71638-4 0  9999", "line2": "2 40069  98.4910 334.4192 0005513 176.5480 183.5737 14.21390038594321"}}, "geometry": {"type": "Point", "coordinates": [155.28606224047132, 4.214713692366283]}}, {"type": "Feature", "properties": {"norad_id": 40267, "name": "HIMAWARI-8", "group": "weather", "lat": 0.02217227233471633, "lon": 46.64055923199635, "alt_km": 35786.72371299283, "timestamp": "2025-12-23T11:34:47.828445+00:00", "meta": {"OBJECT_NAME": "HIMAWARI-8", "OBJECT_ID": "2014-060A", "EPOCH": "2025-12-22T22:23:38.899968", "MEAN_MOTION": 1.00272243, "ECCENTRICITY": 8.19e-05, "INCLINATION": 0.0459, "RA_OF_ASC_NODE": 217.6658, "ARG_OF_PERICENTER": 87.3219, "MEAN_ANOMALY": 263.3208, "EPHEMERIS_TYPE": 0, "CLASSIFICATION_TYPE": "U", "NORAD_CAT_ID": 40267, "ELEMENT_SET_NO": 999, "REV_AT_EPOCH": 4099, "BSTAR": 0, "MEAN_MOTION_DOT": -2.54e-06, "MEAN_MOTION_DDOT": 0}, "tle": {"line1": "1 40267U 14060A   25356.93308912 -.00000254  00000+0  00000+0 0  9996", "line2": "2 40267   0.0459 217.6658 0000819  87.3219 263.3208  1.00272243 40999"}}, "geometry": {"type": "Point", "coordinates": [46.64055923199635, 0.02217227233471633]}}, {"type": "Feature", "properties": {"norad_id": 40367, "name": "FENGYUN 2G", "group": "weather", "lat": -4.8803069322806625, "lon": 5.235845377670821, "alt_km": 35789.37979692002, "timestamp": "2025-12-23T11:34:47.828458+00:00", "meta": {"OBJECT_NAME": "FENGYUN 2G", "OBJECT_ID": "2014-090A", "EPOCH": "2025-12-23T01:37:15.049920", "MEAN_MOTION": 1.00260115, "ECCENTRICITY": 0.0002648, "INCLINATION": 5.1926, "RA_OF_ASC_NODE": 74.9794, "ARG_OF_PERICENTER": 203.6037, "MEAN_ANOMALY": 296.7693, "EPHEMERIS_TYPE": 0, "CLASSIFICATION_TYPE": "U", "NORAD_CAT_ID": 40367, "ELEMENT_SET_NO": 999, "REV_AT_EPOCH": 4023, "BSTAR": 0, "MEAN_MOTION_DOT": -2.79e-06, "MEAN_MOTION_DDOT": 0}, "tle": {"line1": "1 40367U 14090A   25357.06753530 -.00000279  00000+0  00000+0 0  9992", "line2": "2 40367   5.1926  74.9794 0002648 203.6037 296.7693  1.00260115 40233"}}, "geometry": {"type": "Point", "coordinates": [5.235845377670821, -4.8803069322806625]}}, {"type": "Feature", "properties": {"norad_id": 40732, "name": "METEOSAT-11 (MSG-4)", "group": "weather", "lat": -1.1107423190964087, "lon": -84.86253025708233, "alt_km": 35785.18594205537, "timestamp": "2025-12-23T11:34:47.828481+00:00", "meta": {"OBJECT_NAME": "METEOSAT-11 (MSG-4)", "OBJECT_ID": "2015-034A", "EPOCH": "2025-12-23T02:54:15.174144", "MEAN_MOTION": 1.00270743, "ECCENTRICITY": 7.63e-05, "INCLINATION": 2.7623, "RA_OF_ASC_NODE": 71.9738, "ARG_OF_PERICENTER": 137.0333, "MEAN_ANOMALY": 295.6591, "EPHEMERIS_TYPE": 0, "CLASSIFICATION_TYPE": "U", "NORAD_CAT_ID": 40732, "ELEMENT_SET_NO": 999, "REV_AT_EPOCH": 545, "BSTAR": 0, "MEAN_MOTION_DOT": 8.1e-07, "MEAN_MOTION_DDOT": 0}, "tle": {"line1": "1 40732U 15034A   25357.12100896  .00000081  00000+0  00000+0 0  9995", "line2": "2 40732   2.7623  71.9738 0000763 137.0333 295.6591  1.00270743  5454"}}, "geometry": {"type": "Point", "coordinates": [-84.86253025708233, -1.1107423190964087]}}, {"type": "Feature", "properties": {"norad_id": 41105, "name": "ELEKTRO-L 2", "group": "weather", "lat": 0.11625313055331599, "lon": -108.51216021610104, "alt_km": 35773.01607222468, "timestamp": "2025-12-23T11:34:47.828492+00:00", "meta": {"OBJECT_NAME": "ELEKTRO-L 2", "OBJECT_ID": "2015-074A", "EPOCH": "2025-12-23T01:04:44.322816", "MEAN_MOTION": 1.00272278, "ECCENTRICITY": 0.000352, "INCLINATION": 6.25, "RA_OF_ASC_NODE": 72.7058, "ARG_OF_PERICENTER": 208.6905, "MEAN_ANOMALY": 172.1579, "EPHEMERIS_TYPE": 0, "CLASSIFICATION_TYPE": "U", "NORAD_CAT_ID": 41105, "ELEMENT_SET_NO": 999, "REV_AT_EPOCH": 3674, "BSTAR": 0, "MEAN_MOTION_DOT": -9.9e-07, "MEAN_MOTION_DDOT": 0}, "tle": {"line1": "1 41105U 15074A   25357.04495744 -.00000099  00000+0  00000+0 0  9994", "line2": "2 41105   6.2500  72.7058 0003520 208.6905 172.1579  1.00272278 36746"}}, "geometry": {"type": "Point", "coordinates": [-108.51216021610104, 0.11625313055331599]}}, {"type": "Feature", "properties": {"norad_id": 41752, "name": "INSAT-3DR", "group": "weather", "lat": -0.12212586735059743, "lon": -19.893917156301004, "alt_km": 35763.86275016919, "timestamp": "2025-12-23T11:34:47.828503+00:00", "meta": {"OBJECT_NAME": "INSAT-3DR", "OBJECT_ID": "2016-054A", "EPOCH": "2025-12-22T23:47:15.892224", "MEAN_MOTION": 1.00271543, "ECCENTRICITY": 0.0014202, "INCLINATION": 0.1161, "RA_OF_ASC_NODE": 86.2406, "ARG_OF_PERICENTER": 185.5109, "MEAN_ANOMALY": 250.8422, "EPHEMERIS_TYPE": 0, "CLASSIFICATION_TYPE": "U", "NORAD_CAT_ID": 41752, "ELEMENT_SET_NO": 999, "REV_AT_EPOCH": 3405, "BSTAR": 0, "MEAN_MOTION_DOT": -5.6e-07, "MEAN_MOTION_DDOT": 0}, "tle": {"line1": "1 41752U 16054A   25356.99115616 -.00000056  00000+0  00000+0 0  9994", "line2": "2 41752   0.1161  86.2406 0014202 185.5109 250.8422  1.00271543 34052"}}, "geometry": {"type": "Point", "coordinates": [-19.893917156301004, -0.12212586735059743]}}]}